NORAD_CAT_ID,OBJECT_NAME,OBJECT_TYPE,EPOCH,MEAN_MOTION,ECCENTRICITY,INCLINATION,RA_OF_ASC_NODE,ARG_OF_PERICENTER,MEAN_ANOMALY,BSTAR,MEAN_MOTION_DOT,MEAN_MOTION_DDOT,TLE_LINE0,TLE_LINE1,TLE_LINE2,SEMIMAJOR_AXIS,PERIOD,APOGEE,PERIGEE,DECAYED
52368.0,STARLINK-3834,PAYLOAD,2022-09-18 20:41:36,15.08831841,0.0001646,53.2159,120.6122,51.4786,308.6354,0.0001328,1.826e-05,0.0,0 STARLINK-3834,1 52368U 22045AP  22261.86222780  .00001826  00000-0  13280-3 0  9999,2 52368  53.2159 120.6122 0001646  51.4786 308.6354 15.08831841 24513,6917.905,95.438,540.909,538.632,0.0
52368.0,STARLINK-3834,PAYLOAD,2022-09-19 01:27:45,15.08832896,0.0001663,53.2158,119.7201,51.1392,308.9748,0.00013768,1.903e-05,0.0,0 STARLINK-3834,1 52368U 22045AP  22262.06094868  .00001903  00000-0  13768-3 0  9993,2 52368  53.2158 119.7201 0001663  51.1392 308.9748 15.08832896 24542,6917.901999999999,95.438,540.918,538.617,0.0
52368.0,STARLINK-3834,PAYLOAD,2022-09-19 07:49:18,15.08837105,0.0001672,53.2158,118.5306,51.1293,308.9848,0.00016323,2.311e-05,0.0,0 STARLINK-3834,1 52368U 22045AP  22262.32590665  .00002311  00000-0  16323-3 0  9992,2 52368  53.2158 118.5306 0001672  51.1293 308.9848 15.08837105 24588,6917.889,95.438,540.911,538.5980000000002,0.0
52368.0,STARLINK-3834,PAYLOAD,2022-09-19 17:21:36,15.08843332,0.0001662,53.2158,116.7463,51.4413,308.6728,0.00017141,2.441e-05,0.0,0 STARLINK-3834,1 52368U 22045AP  22262.72334275  .00002441  00000-0  17141-3 0  9992,2 52368  53.2158 116.7463 0001662  51.4413 308.6728 15.08843332 24648,6917.87,95.437,540.885,538.585,0.0
52368.0,STARLINK-3834,PAYLOAD,2022-09-20 07:40:05,15.08839455,0.0001561999999999,53.2158,114.0693,52.0878,308.0255,3.5934e-05,2.84e-06,0.0,0 STARLINK-3834,1 52368U 22045AP  22263.31950771  .00000284  00000-0  35934-4 0  9997,2 52368  53.2158 114.0693 0001562  52.0878 308.0255 15.08839455 24735,6917.882,95.438,540.828,538.6659999999998,0.0
52368.0,STARLINK-3834,PAYLOAD,2022-09-20 14:01:38,15.08839073,0.0001573,53.2161,112.8802,50.3895,309.7236,3.2709e-05,2.33e-06,0.0,0 STARLINK-3834,1 52368U 22045AP  22263.58446786  .00000233  00000-0  32709-4 0  9993,2 52368  53.2161 112.8802 0001573  50.3895 309.7236 15.08839073 24776,6917.8830000000025,95.438,540.836,538.66,0.0
52368.0,STARLINK-3834,PAYLOAD,2022-09-21 17:03:11,15.08840387,0.0001781,53.216,107.8251,54.2331,305.8827,-1.1484e-05,-4.71e-06,0.0,0 STARLINK-3834,1 52368U 22045AP  22264.71054703 -.00000471  00000-0 -11484-4 0  9996,2 52368  53.2160 107.8251 0001781  54.2331 305.8827 15.08840387 24948,6917.879,95.438,540.976,538.512,0.0
52368.0,STARLINK-3834,PAYLOAD,2022-09-22 20:04:45,15.08835377,0.0001773,53.2163,102.7693,50.6195,309.4954,-2.9702e-05,-7.61e-06,0.0,0 STARLINK-3834,1 52368U 22045AP  22265.83663256 -.00000761  00000-0 -29702-4 0  9993,2 52368  53.2163 102.7693 0001773  50.6195 309.4954 15.08835377 25118,6917.895,95.438,540.986,538.533,0.0
52368.0,STARLINK-3834,PAYLOAD,2022-09-23 05:37:04,15.08833909,0.000184,53.217,100.9856,55.8247,304.2920000000001,-2.277400000000001e-05,-6.51e-06,0.0,0 STARLINK-3834,1 52368U 22045AP  22266.23407489 -.00000651  00000-0 -22774-4 0  9992,2 52368  53.2170 100.9856 0001840  55.8247 304.2920 15.08833909 25178,6917.899,95.438,541.0369999999998,538.491,0.0
52368.0,STARLINK-3834,PAYLOAD,2022-09-23 19:55:32,15.08837732,0.000174,53.2163,98.3092,50.6692,309.4454,4.3256e-05,4e-06,0.0,0 STARLINK-3834,1 52368U 22045AP  22266.83023268  .00000400  00000-0  43256-4 0  9995,2 52368  53.2163  98.3092 0001740  50.6692 309.4454 15.08837732 25265,6917.887,95.438,540.956,538.549,0.0
52368.0,STARLINK-3834,PAYLOAD,2022-09-23 21:30:55,15.08838313,0.0001748,53.2162,98.0118,50.315,309.7996,4.7329e-05,4.65e-06,0.0,0 STARLINK-3834,1 52368U 22045AP  22266.89647231  .00000465  00000-0  47329-4 0  9999,2 52368  53.2162  98.0118 0001748  50.3150 309.7996 15.08838313 25275,6917.886,95.438,540.96,538.5409999999998,0.0
52368.0,STARLINK-3834,PAYLOAD,2022-09-24 18:10:55,15.0884273,0.0001766,53.2162,94.1462,52.0914,308.0238,0.0002084,3.03e-05,0.0,0 STARLINK-3834,1 52368U 22045AP  22267.75758637  .00003030  00000-0  20840-3 0  9997,2 52368  53.2162  94.1462 0001766  52.0914 308.0238 15.08842730 25405,6917.871999999999,95.437,540.9590000000002,538.515,0.0
52368.0,STARLINK-3834,PAYLOAD,2022-09-25 05:18:38,15.08836879,0.0001846,53.2165,92.0646,54.1242,305.9921,0.00013502,1.861e-05,0.0,0 STARLINK-3834,1 52368U 22045AP  22268.22127360  .00001861  00000-0  13502-3 0  9990,2 52368  53.2165  92.0646 0001846  54.1242 305.9921 15.08836879 25474,6917.89,95.438,541.0319999999998,538.4780000000002,0.0
52368.0,STARLINK-3834,PAYLOAD,2022-09-25 18:01:42,15.08846191,0.0001686999999999,53.2159,89.6852,57.3425,302.773,8.6075e-05,1.082e-05,0.0,0 STARLINK-3834,1 52368U 22045AP  22268.75118612  .00001082  00000-0  86075-4 0  9999,2 52368  53.2159  89.6852 0001687  57.3425 302.7730 15.08846191 25559,6917.861,95.437,540.894,538.559,0.0
52368.0,STARLINK-3834,PAYLOAD,2022-09-25 19:37:05,15.08841876,0.0001636,53.2154,89.3877,57.511,302.6040000000001,2.2652e-05,7.2e-07,0.0,0 STARLINK-3834,1 52368U 22045AP  22268.81742767  .00000072  00000-0  22652-4 0  9999,2 52368  53.2154  89.3877 0001636  57.5110 302.6040 15.08841876 25564,6917.875,95.437,540.871,538.6080000000002,0.0
52368.0,STARLINK-3834,PAYLOAD,2022-09-25 22:47:52,15.08833448,0.000176,53.2155,88.7931,52.4806,307.6346,-0.00010544,-1.965e-05,0.0,0 STARLINK-3834,1 52368U 22045AP  22268.94991109 -.00001965  00000-0 -10544-3 0  9999,2 52368  53.2155  88.7931 0001760  52.4806 307.6346 15.08833448 25585,6917.9,95.438,540.9830000000002,538.548,0.0
52368.0,STARLINK-3834,PAYLOAD,2022-09-27 05:00:12,15.0884378,0.0001934,53.216,83.1415,55.6257,304.4918,6.49e-05,7.45e-06,0.0,0 STARLINK-3834,1 52368U 22045AP  22270.20847244  .00000745  00000-0  64900-4 0  9990,2 52368  53.2160  83.1415 0001934  55.6257 304.4918 15.08843780 25776,6917.869000000002,95.437,541.072,538.396,0.0
52368.0,STARLINK-3834,PAYLOAD,2022-09-27 19:18:40,15.08844426,0.0002012,53.2154,80.4666,57.4917,302.627,0.00071922,0.00011178,0.0,0 STARLINK-3834,1 52368U 22045AP  22270.80463622  .00011178  00000-0  71922-3 0  9993,2 52368  53.2154  80.4666 0002012  57.4917 302.6270 15.08844426 25867,6917.8669999999975,95.437,541.124,538.34,0.0
52368.0,STARLINK-3834,PAYLOAD,2022-09-28 11:12:31,15.08859506,0.0002465,53.2152,77.4923,60.6254,299.4984,0.00051764,7.964e-05,0.0,0 STARLINK-3834,1 52368U 22045AP  22271.46702858  .00007964  00000-0  51764-3 0  9993,2 52368  53.2152  77.4923 0002465  60.6254 299.4984 15.08859506 25960,6917.821,95.436,541.391,537.981,0.0
52368.0,STARLINK-3834,PAYLOAD,2022-09-28 19:09:26,15.08850484,0.0001892,53.2163,76.006,59.4944,300.6235,0.00018596,2.674e-05,0.0,0 STARLINK-3834,1 52368U 22045AP  22271.79822702  .00002674  00000-0  18596-3 0  9999,2 52368  53.2163  76.0060 0001892  59.4944 300.6235 15.08850484 26011,6917.848000000001,95.437,541.0219999999998,538.404,0.0
52368.0,STARLINK-3834,PAYLOAD,2022-09-28 22:20:13,15.08840486,0.0001979,53.216,75.4114,52.8365,307.2808,5.087600000000001e-05,5.22e-06,0.0,0 STARLINK-3834,1 52368U 22045AP  22271.93071221  .00000522  00000-0  50876-4 0  9995,2 52368  53.2160  75.4114 0001979  52.8365 307.2808 15.08840486 26033,6917.879,95.438,541.113,538.375,0.0
52368.0,STARLINK-3834,PAYLOAD,2022-09-29 11:03:19,15.08831615,0.0001758,53.2163,73.0319,57.2852,302.831,-8.1397e-05,-1.583e-05,0.0,0 STARLINK-3834,1 52368U 22045AP  22272.46063759 -.00001583  00000-0 -81397-4 0  9993,2 52368  53.2163  73.0319 0001758  57.2852 302.8310 15.08831615 26114,6917.906,95.438,540.987,538.555,0.0
52368.0,STARLINK-3834,PAYLOAD,2022-09-29 20:35:38,15.08831081,0.0001952,53.2164,71.2482,55.014,305.1035,-0.00013418,-2.423e-05,0.0,0 STARLINK-3834,1 52368U 22045AP  22272.85808050 -.00002423  00000-0 -13418-3 0  9999,2 52368  53.2164  71.2482 0001952  55.0140 305.1035 15.08831081 26171,6917.908,95.438,541.123,538.422,0.0
52368.0,STARLINK-3834,PAYLOAD,2022-09-30 10:54:06,15.08835636,0.0001885,53.2162,68.5723,52.9543,307.1621,9.619e-05,1.243e-05,0.0,0 STARLINK-3834,1 52368U 22045AP  22273.45424114  .00001243  00000-0  96190-4 0  9997,2 52368  53.2162  68.5723 0001885  52.9543 307.1621 15.08835636 26267,6917.894,95.438,541.063,538.455,0.0
52368.0,STARLINK-3834,PAYLOAD,2022-09-30 17:15:38,15.08841742,0.0001925,53.2157,67.383,52.3316,307.7851,0.00019358,2.794e-05,0.0,0 STARLINK-3834,1 52368U 22045AP  22273.71919956  .00002794  00000-0  19358-3 0  9991,2 52368  53.2157  67.3830 0001925  52.3316 307.7851 15.08841742 26305,6917.875,95.437,541.072,538.408,0.0
52368.0,STARLINK-3834,PAYLOAD,2022-09-30 20:26:25,15.08844371,0.0001911,53.2159,66.788,48.3873,311.7282,0.00020731,3.013e-05,0.0,0 STARLINK-3834,1 52368U 22045AP  22273.85167872  .00003013  00000-0  20731-3 0  9990,2 52368  53.2159  66.7880 0001911  48.3873 311.7282 15.08844371 26329,6917.8669999999975,95.437,541.054,538.41,0.0
52368.0,STARLINK-3834,PAYLOAD,2022-10-01 13:55:39,15.08840429,0.000171,53.2163,63.5162,51.0564,309.0581,0.00033148,4.991e-05,0.0,0 STARLINK-3834,1 52368U 22045AP  22274.58032229  .00004991  00000-0  33148-3 0  9990,2 52368  53.2163  63.5162 0001710  51.0564 309.0581 15.08840429 26431,6917.879,95.438,540.927,538.561,0.0
52368.0,STARLINK-3834,PAYLOAD,2022-10-01 18:41:49,15.08844888,0.0001759,53.2164,62.6243,46.8774,313.2365,0.00031269,4.693e-05,0.0,0 STARLINK-3834,1 52368U 22045AP  22274.77904013  .00004693  00000-0  31269-3 0  9991,2 52368  53.2164  62.6243 0001759  46.8774 313.2365 15.08844888 26463,6917.865,95.437,540.947,538.514,0.0
52368.0,STARLINK-3834,PAYLOAD,2022-10-01 20:17:12,15.08846174,0.0001746,53.2166,62.3268,46.3014,313.8122,0.00031403,4.714e-05,0.0,0 STARLINK-3834,1 52368U 22045AP  22274.84527932  .00004714  00000-0  31403-3 0  9994,2 52368  53.2166  62.3268 0001746  46.3014 313.8122 15.08846174 26475,6917.861999999999,95.437,540.934,538.519,0.0
